{
    "satellites": [
        {
            "name": "starlink321",
            "title": "Starlink-321 (G6-87)",
            "tle": [
                "1 66450C 25259AE  25328.88520833 -.00025688  00000+0 -16671-3 0  3281",
                "2 66450  42.9997 152.5874 0001625 282.7920 293.9277 15.75055538    13"
            ],
            "stdMag": 5,
            "noradId": "66450",
            "tleUrl": "http://celestrak.org/NORAD/elements/supplemental/sup-gp.php?FILE=starlink&FORMAT=tle",
            "launchDate": "2025-11-11T03:21:30.000Z",
            "active": true,
            "batch": [
                {
                    "noradId": "66450",
                    "tle": [
                        "1 66450C 25259AE  25328.88520833 -.00025688  00000+0 -16671-3 0  3281",
                        "2 66450  42.9997 152.5874 0001625 282.7920 293.9277 15.75055538    13"
                    ]
                },
                {
                    "noradId": "66449",
                    "tle": [
                        "1 66449C 25259AD  25328.89284722 -.00030355  00000+0 -19702-3 0  3289",
                        "2 66449  42.9996 152.5468 0001776 270.7547 347.4151 15.75058240    17"
                    ]
                },
                {
                    "noradId": "66448",
                    "tle": [
                        "1 66448C 25259AC  25328.88868056 -.00031315  00000+0 -20324-3 0  3284",
                        "2 66448  42.9996 152.5773 0001696 273.1940 319.4036 15.75060537    13"
                    ]
                },
                {
                    "noradId": "66447",
                    "tle": [
                        "1 66447C 25259AB  25328.89076389 -.00032416  00000+0 -21038-3 0  3280",
                        "2 66447  42.9997 152.5691 0001676 259.6309 342.8736 15.75061921    13"
                    ]
                },
                {
                    "noradId": "66444",
                    "tle": [
                        "1 66444C 25259Y   25328.89076389 -.00030440  00000+0 -19757-3 0  3287",
                        "2 66444  42.9997 152.5740 0001567 274.0374 326.5537 15.75059304    17"
                    ]
                },
                {
                    "noradId": "66446",
                    "tle": [
                        "1 66446C 25259AA  25328.89145833 -.00033160  00000+0 -21524-3 0  3287",
                        "2 66446  42.9997 152.5742 0001684 267.9346 334.6846 15.75060165    11"
                    ]
                },
                {
                    "noradId": "66445",
                    "tle": [
                        "1 66445C 25259Z   25328.89215278 -.00027628  00000+0 -17933-3 0  3288",
                        "2 66445  42.9996 152.5753 0001592 269.7387 334.9089 15.75054442    17"
                    ]
                },
                {
                    "noradId": "66443",
                    "tle": [
                        "1 66443C 25259X   25328.88659722 -.00021826  00000+0 -14165-3 0  3289",
                        "2 66443  42.9997 152.6144 0001727 264.5028 306.6827 15.75051175    12"
                    ]
                },
                {
                    "noradId": "66442",
                    "tle": [
                        "1 66442C 25259W   25328.88798611 -.00025642  00000+0 -16642-3 0  3281",
                        "2 66442  42.9996 152.6109 0001678 265.4183 311.7341 15.75055125    15"
                    ]
                },
                {
                    "noradId": "66441",
                    "tle": [
                        "1 66441C 25259V   25328.89076389 -.00028395  00000+0 -18431-3 0  3288",
                        "2 66441  42.9996 152.5984 0001616 270.4436 320.5672 15.75055987    14"
                    ]
                },
                {
                    "noradId": "66440",
                    "tle": [
                        "1 66440C 25259U   25328.88937500 -.00027196  00000+0 -17653-3 0  3280",
                        "2 66440  42.9996 152.6125 0001670 272.4534 308.7571 15.75053325    12"
                    ]
                },
                {
                    "noradId": "66438",
                    "tle": [
                        "1 66438C 25259S   25328.88937500 -.00029946  00000+0 -19436-3 0  3283",
                        "2 66438  42.9996 152.6165 0001879 266.0293 313.2590 15.75057167    15"
                    ]
                },
                {
                    "noradId": "66437",
                    "tle": [
                        "1 66437C 25259R   25328.89215278 -.00035519  00000+0 -23053-3 0  3287",
                        "2 66437  42.9996 152.6045 0001656 266.5447 326.5894 15.75064262    18"
                    ]
                },
                {
                    "noradId": "66436",
                    "tle": [
                        "1 66436C 25259Q   25328.89076389 -.00025557  00000+0 -16587-3 0  3289",
                        "2 66436  42.9996 152.6176 0001815 250.5340 332.8038 15.75054513    12"
                    ]
                },
                {
                    "noradId": "66439",
                    "tle": [
                        "1 66439C 25259T   25328.89006944 -.00027528  00000+0 -17865-3 0  3282",
                        "2 66439  42.9996 152.6285 0001944 261.0661 316.4050 15.75057198    16"
                    ]
                },
                {
                    "noradId": "66435",
                    "tle": [
                        "1 66435C 25259P   25328.88868056 -.00027522  00000+0 -17860-3 0  3286",
                        "2 66435  42.9996 152.6406 0002207 263.8315 303.8399 15.75058099    13"
                    ]
                },
                {
                    "noradId": "66434",
                    "tle": [
                        "1 66434C 25259N   25328.88937500 -.00021569  00000+0 -13998-3 0  3289",
                        "2 66434  42.9996 152.6406 0002004 274.0672 295.6334 15.75051249    14"
                    ]
                },
                {
                    "noradId": "66433",
                    "tle": [
                        "1 66433C 25259M   25328.89076389 -.00013802  00000+0 -89587-4 0  3287",
                        "2 66433  42.9996 152.6369 0001494 275.7554 299.9254 15.75041001    13"
                    ]
                },
                {
                    "noradId": "66432",
                    "tle": [
                        "1 66432C 25259L   25328.88868056 -.00026204  00000+0 -17008-3 0  3283",
                        "2 66432  42.9996 152.6530 0001674 263.7109 298.2177 15.75053155    14"
                    ]
                },
                {
                    "noradId": "66431",
                    "tle": [
                        "1 66431C 25259K   25328.88868056 -.00016995  00000+0 -11031-3 0  3288",
                        "2 66431  42.9996 152.6583 0001807 253.7450 306.2704 15.75044031    16"
                    ]
                },
                {
                    "noradId": "66430",
                    "tle": [
                        "1 66430C 25259J   25328.89076389 -.00020283  00000+0 -13167-3 0  3285",
                        "2 66430  42.9996 152.6517 0001893 264.1906 305.7417 15.75044459    18"
                    ]
                },
                {
                    "noradId": "66429",
                    "tle": [
                        "1 66429C 25259H   25328.89145833 -.00027437  00000+0 -17809-3 0  3289",
                        "2 66429  42.9996 152.6512 0002058 272.9113 299.0411 15.75052641    13"
                    ]
                },
                {
                    "noradId": "66428",
                    "tle": [
                        "1 66428C 25259G   25328.88798611 -.00030501  00000+0 -19800-3 0  3284",
                        "2 66428  42.9996 152.6783 0001652 271.1576 279.1679 15.75054741    13"
                    ]
                },
                {
                    "noradId": "66427",
                    "tle": [
                        "1 66427C 25259F   25328.88451389 -.00032226  00000+0 -20918-3 0  3289",
                        "2 66427  42.9996 152.7042 0002021 268.4675 260.2259 15.75057370    17"
                    ]
                },
                {
                    "noradId": "66426",
                    "tle": [
                        "1 66426C 25259E   25328.88590278 -.00029202  00000+0 -18954-3 0  3286",
                        "2 66426  42.9995 152.7012 0002101 266.6527 268.0045 15.75055658    13"
                    ]
                },
                {
                    "noradId": "66425",
                    "tle": [
                        "1 66425C 25259D   25328.88798611  .00002351  00000+0  15268-4 0  3286",
                        "2 66425  42.9995 152.6921 0001105 274.2417 270.3750 15.75013977    13"
                    ]
                },
                {
                    "noradId": "66424",
                    "tle": [
                        "1 66424C 25259C   25328.88937500 -.00023146  00000+0 -15026-3 0  3285",
                        "2 66424  42.9995 152.6901 0001631 268.1673 282.3812 15.75047985    18"
                    ]
                },
                {
                    "noradId": "66423",
                    "tle": [
                        "1 66423C 25259B   25328.89006944 -.00032075  00000+0 -20824-3 0  3287",
                        "2 66423  42.9995 152.6901 0001717 270.6318 281.9417 15.75053702    16"
                    ]
                },
                {
                    "noradId": "66422",
                    "tle": [
                        "1 66422C 25259A   25328.89215278 -.00027244  00000+0 -17684-3 0  3280",
                        "2 66422  42.9995 152.6822 0001737 274.7389 287.7377 15.75053658    11"
                    ]
                }
            ]
        }
    ],
    "config": {}
}